[{"OBJECT_NAME":"IRIDIUM 151","OBJECT_ID":"2017-083E","EPOCH":"2026-04-05T11:01:07.069440","MEAN_MOTION":14.3421691,"ECCENTRICITY":0.00022404,"INCLINATION":86.4015,"RA_OF_ASC_NODE":352.4626,"ARG_OF_PERICENTER":84.8729,"MEAN_ANOMALY":275.2722,"EPHEMERIS_TYPE":0,"CLASSIFICATION_TYPE":"U","NORAD_CAT_ID":43074,"ELEMENT_SET_NO":999,"REV_AT_EPOCH":43371,"BSTAR":3.4523673e-5,"MEAN_MOTION_DOT":1.16e-6,"MEAN_MOTION_DDOT":0},{"OBJECT_NAME":"IRIDIUM 134","OBJECT_ID":"2017-083F","EPOCH":"2026-04-05T10:15:27.170784","MEAN_MOTION":14.34218223,"ECCENTRICITY":0.0002235,"INCLINATION":86.4015,"RA_OF_ASC_NODE":352.4826,"ARG_OF_PERICENTER":88.8323,"MEAN_ANOMALY":271.3129,"EPHEMERIS_TYPE":0,"CLASSIFICATION_TYPE":"U","NORAD_CAT_ID":43075,"ELEMENT_SET_NO":999,"REV_AT_EPOCH":43367,"BSTAR":5.5215e-5,"MEAN_MOTION_DOT":1.74e-6,"MEAN_MOTION_DDOT":0},{"OBJECT_NAME":"IRIDIUM 137","OBJECT_ID":"2017-083G","EPOCH":"2026-04-05T05:32:19.215744","MEAN_MOTION":14.34221635,"ECCENTRICITY":0.0002596,"INCLINATION":86.402,"RA_OF_ASC_NODE":352.6561,"ARG_OF_PERICENTER":80.2964,"MEAN_ANOMALY":279.8525,"EPHEMERIS_TYPE":0,"CLASSIFICATION_TYPE":"U","NORAD_CAT_ID":43076,"ELEMENT_SET_NO":999,"REV_AT_EPOCH":43371,"BSTAR":0.00013281,"MEAN_MOTION_DOT":3.92e-6,"MEAN_MOTION_DDOT":0},{"OBJECT_NAME":"IRIDIUM 141","OBJECT_ID":"2017-083H","EPOCH":"2026-04-05T10:24:35.275968","MEAN_MOTION":14.34219877,"ECCENTRICITY":0.00020699,"INCLINATION":86.4014,"RA_OF_ASC_NODE":352.4061,"ARG_OF_PERICENTER":83.9518,"MEAN_ANOMALY":276.1914,"EPHEMERIS_TYPE":0,"CLASSIFICATION_TYPE":"U","NORAD_CAT_ID":43077,"ELEMENT_SET_NO":999,"REV_AT_EPOCH":43374,"BSTAR":0.00012418164,"MEAN_MOTION_DOT":3.68e-6,"MEAN_MOTION_DDOT":0},{"OBJECT_NAME":"IRIDIUM 153","OBJECT_ID":"2017-083J","EPOCH":"2026-04-05T02:33:51.321600","MEAN_MOTION":14.34218103,"ECCENTRICITY":0.00018448,"INCLINATION":86.3966,"RA_OF_ASC_NODE":321.0463,"ARG_OF_PERICENTER":87.2333,"MEAN_ANOMALY":272.9074,"EPHEMERIS_TYPE":0,"CLASSIFICATION_TYPE":"U","NORAD_CAT_ID":43078,"ELEMENT_SET_NO":999,"REV_AT_EPOCH":43480,"BSTAR":3.870356e-5,"MEAN_MOTION_DOT":1.28e-6,"MEAN_MOTION_DDOT":0},{"OBJECT_NAME":"IRIDIUM 131","OBJECT_ID":"2017-083K","EPOCH":"2026-04-05T03:24:27.116064","MEAN_MOTION":14.34218619,"ECCENTRICITY":0.00021748,"INCLINATION":86.4021,"RA_OF_ASC_NODE":352.7089,"ARG_OF_PERICENTER":82.9511,"MEAN_ANOMALY":277.1932,"EPHEMERIS_TYPE":0,"CLASSIFICATION_TYPE":"U","NORAD_CAT_ID":43079,"ELEMENT_SET_NO":999,"REV_AT_EPOCH":43363,"BSTAR":6.8482017e-5,"MEAN_MOTION_DOT":2.12e-6,"MEAN_MOTION_DDOT":0},{"OBJECT_NAME":"IRIDIUM 144","OBJECT_ID":"2018-030A","EPOCH":"2026-04-05T14:26:15.392256","MEAN_MOTION":14.34217485,"ECCENTRICITY":0.00022624,"INCLINATION":86.3964,"RA_OF_ASC_NODE":320.7703,"ARG_OF_PERICENTER":88.1345,"MEAN_ANOMALY":272.011,"EPHEMERIS_TYPE":0,"CLASSIFICATION_TYPE":"U","NORAD_CAT_ID":43249,"ELEMENT_SET_NO":999,"REV_AT_EPOCH":41973,"BSTAR":2.3137817e-5,"MEAN_MOTION_DOT":8.5e-7,"MEAN_MOTION_DDOT":0},{"OBJECT_NAME":"IRIDIUM 149","OBJECT_ID":"2018-030B","EPOCH":"2026-04-05T14:35:23.364384","MEAN_MOTION":14.34217646,"ECCENTRICITY":0.00020048,"INCLINATION":86.3961,"RA_OF_ASC_NODE":320.7356,"ARG_OF_PERICENTER":85.6803,"MEAN_ANOMALY":274.4622,"EPHEMERIS_TYPE":0,"CLASSIFICATION_TYPE":"U","NORAD_CAT_ID":43250,"ELEMENT_SET_NO":999,"REV_AT_EPOCH":41975,"BSTAR":2.0812462e-5,"MEAN_MOTION_DOT":7.8e-7,"MEAN_MOTION_DDOT":0},{"OBJECT_NAME":"IRIDIUM 157","OBJECT_ID":"2018-030C","EPOCH":"2026-04-05T13:22:19.168320","MEAN_MOTION":14.34219599,"ECCENTRICITY":0.00021063,"INCLINATION":86.3962,"RA_OF_ASC_NODE":320.8083,"ARG_OF_PERICENTER":86.9592,"MEAN_ANOMALY":273.1845,"EPHEMERIS_TYPE":0,"CLASSIFICATION_TYPE":"U","NORAD_CAT_ID":43251,"ELEMENT_SET_NO":999,"REV_AT_EPOCH":41972,"BSTAR":9.2158369e-5,"MEAN_MOTION_DOT":2.78e-6,"MEAN_MOTION_DDOT":0},{"OBJECT_NAME":"IRIDIUM 140","OBJECT_ID":"2018-030D","EPOCH":"2026-04-05T13:49:43.380192","MEAN_MOTION":14.34217433,"ECCENTRICITY":0.00020129,"INCLINATION":86.3964,"RA_OF_ASC_NODE":320.813,"ARG_OF_PERICENTER":88.7167,"MEAN_ANOMALY":271.4259,"EPHEMERIS_TYPE":0,"CLASSIFICATION_TYPE":"U","NORAD_CAT_ID":43252,"ELEMENT_SET_NO":999,"REV_AT_EPOCH":41978,"BSTAR":-2.5424235e-5,"MEAN_MOTION_DOT":-5.1e-7,"MEAN_MOTION_DDOT":0},{"OBJECT_NAME":"IRIDIUM 145","OBJECT_ID":"2018-030E","EPOCH":"2026-04-05T15:11:55.309920","MEAN_MOTION":14.3421918,"ECCENTRICITY":0.00024599,"INCLINATION":86.3963,"RA_OF_ASC_NODE":320.7617,"ARG_OF_PERICENTER":90.1675,"MEAN_ANOMALY":269.9803,"EPHEMERIS_TYPE":0,"CLASSIFICATION_TYPE":"U","NORAD_CAT_ID":43253,"ELEMENT_SET_NO":999,"REV_AT_EPOCH":41972,"BSTAR":7.2679782e-5,"MEAN_MOTION_DOT":2.23e-6,"MEAN_MOTION_DDOT":0},{"OBJECT_NAME":"IRIDIUM 146","OBJECT_ID":"2018-030F","EPOCH":"2026-04-05T14:44:31.347744","MEAN_MOTION":14.34218586,"ECCENTRICITY":0.00022575,"INCLINATION":86.3963,"RA_OF_ASC_NODE":320.7821,"ARG_OF_PERICENTER":87.1386,"MEAN_ANOMALY":273.0068,"EPHEMERIS_TYPE":0,"CLASSIFICATION_TYPE":"U","NORAD_CAT_ID":43254,"ELEMENT_SET_NO":999,"REV_AT_EPOCH":41973,"BSTAR":5.3681919e-5,"MEAN_MOTION_DOT":1.7e-6,"MEAN_MOTION_DDOT":0},{"OBJECT_NAME":"IRIDIUM 148","OBJECT_ID":"2018-030G","EPOCH":"2026-04-05T13:58:50.507328","MEAN_MOTION":14.34222179,"ECCENTRICITY":0.0002139,"INCLINATION":86.3964,"RA_OF_ASC_NODE":320.8373,"ARG_OF_PERICENTER":85.5933,"MEAN_ANOMALY":274.5507,"EPHEMERIS_TYPE":0,"CLASSIFICATION_TYPE":"U","NORAD_CAT_ID":43255,"ELEMENT_SET_NO":999,"REV_AT_EPOCH":41976,"BSTAR":0.00011500743,"MEAN_MOTION_DOT":3.42e-6,"MEAN_MOTION_DDOT":0},{"OBJECT_NAME":"IRIDIUM 142","OBJECT_ID":"2018-030H","EPOCH":"2026-04-05T14:53:39.321600","MEAN_MOTION":14.342187,"ECCENTRICITY":0.00023883,"INCLINATION":86.3958,"RA_OF_ASC_NODE":320.713,"ARG_OF_PERICENTER":89.5862,"MEAN_ANOMALY":270.5607,"EPHEMERIS_TYPE":0,"CLASSIFICATION_TYPE":"U","NORAD_CAT_ID":43256,"ELEMENT_SET_NO":999,"REV_AT_EPOCH":41973,"BSTAR":4.8149717e-5,"MEAN_MOTION_DOT":1.55e-6,"MEAN_MOTION_DDOT":0},{"OBJECT_NAME":"IRIDIUM 150","OBJECT_ID":"2018-030J","EPOCH":"2026-04-05T14:07:59.362464","MEAN_MOTION":14.34218164,"ECCENTRICITY":0.00021625,"INCLINATION":86.3966,"RA_OF_ASC_NODE":320.8403,"ARG_OF_PERICENTER":88.2432,"MEAN_ANOMALY":271.9011,"EPHEMERIS_TYPE":0,"CLASSIFICATION_TYPE":"U","NORAD_CAT_ID":43257,"ELEMENT_SET_NO":999,"REV_AT_EPOCH":41975,"BSTAR":3.0986123e-5,"MEAN_MOTION_DOT":1.07e-6,"MEAN_MOTION_DDOT":0},{"OBJECT_NAME":"IRIDIUM 143","OBJECT_ID":"2018-030K","EPOCH":"2026-04-05T13:40:35.310432","MEAN_MOTION":14.34217197,"ECCENTRICITY":0.00022915,"INCLINATION":86.3967,"RA_OF_ASC_NODE":320.9379,"ARG_OF_PERICENTER":89.1681,"MEAN_ANOMALY":270.9778,"EPHEMERIS_TYPE":0,"CLASSIFICATION_TYPE":"U","NORAD_CAT_ID":43258,"ELEMENT_SET_NO":999,"REV_AT_EPOCH":41968,"BSTAR":8.3143343e-5,"MEAN_MOTION_DOT":2.53e-6,"MEAN_MOTION_DDOT":0},{"OBJECT_NAME":"IRIDIUM 161","OBJECT_ID":"2018-047C","EPOCH":"2026-04-05T12:14:47.538816","MEAN_MOTION":14.43278328,"ECCENTRICITY":0.00021443,"INCLINATION":86.4453,"RA_OF_ASC_NODE":118.8695,"ARG_OF_PERICENTER":85.0606,"MEAN_ANOMALY":275.084,"EPHEMERIS_TYPE":0,"CLASSIFICATION_TYPE":"U","NORAD_CAT_ID":43478,"ELEMENT_SET_NO":999,"REV_AT_EPOCH":41465,"BSTAR":5.3322297e-5,"MEAN_MOTION_DOT":2.0e-6,"MEAN_MOTION_DDOT":0}]
