IRIDIUM 151             
1 43074U 17083E   26095.45910960  .00000116  00000+0  34524-4 0  9992
2 43074  86.4015 352.4626 0002240  84.8729 275.2722 14.34216910433714
IRIDIUM 134             
1 43075U 17083F   26095.42739781  .00000174  00000+0  55215-4 0  9994
2 43075  86.4015 352.4826 0002235  88.8323 271.3129 14.34218223433677
IRIDIUM 137             
1 43076U 17083G   26095.23077796  .00000392  00000+0  13281-3 0  9993
2 43076  86.4020 352.6561 0002596  80.2964 279.8525 14.34221635433718
IRIDIUM 141             
1 43077U 17083H   26095.43374162  .00000368  00000+0  12418-3 0  9997
2 43077  86.4014 352.4061 0002069  83.9518 276.1914 14.34219877433745
IRIDIUM 153             
1 43078U 17083J   26095.10684400  .00000128  00000+0  38704-4 0  9992
2 43078  86.3966 321.0463 0001844  87.2333 272.9074 14.34218103434801
IRIDIUM 131             
1 43079U 17083K   26095.14198051  .00000212  00000+0  68482-4 0  9999
2 43079  86.4021 352.7089 0002174  82.9511 277.1932 14.34218619433639
IRIDIUM 144             
1 43249U 18030A   26095.60156704  .00000085  00000+0  23138-4 0  9998
2 43249  86.3964 320.7703 0002262  88.1345 272.0110 14.34217485419739
IRIDIUM 149             
1 43250U 18030B   26095.60790931  .00000078  00000+0  20812-4 0  9994
2 43250  86.3961 320.7356 0002004  85.6803 274.4622 14.34217646419752
IRIDIUM 157             
1 43251U 18030C   26095.55716630  .00000278  00000+0  92158-4 0  9997
2 43251  86.3962 320.8083 0002106  86.9592 273.1845 14.34219599419723
IRIDIUM 140             
1 43252U 18030D   26095.57619653 -.00000051  00000+0 -25424-4 0  9990
2 43252  86.3964 320.8130 0002012  88.7167 271.4259 14.34217433419784
IRIDIUM 145             
1 43253U 18030E   26095.63327905  .00000223  00000+0  72680-4 0  9999
2 43253  86.3963 320.7617 0002459  90.1675 269.9803 14.34219180419721
IRIDIUM 146             
1 43254U 18030F   26095.61425171  .00000170  00000+0  53682-4 0  9994
2 43254  86.3963 320.7821 0002257  87.1386 273.0068 14.34218586419739
IRIDIUM 148             
1 43255U 18030G   26095.58252902  .00000342  00000+0  11501-3 0  9995
2 43255  86.3964 320.8373 0002139  85.5933 274.5507 14.34222179419763
IRIDIUM 142             
1 43256U 18030H   26095.62059400  .00000155  00000+0  48150-4 0  9992
2 43256  86.3958 320.7130 0002388  89.5862 270.5607 14.34218700419737
IRIDIUM 150             
1 43257U 18030J   26095.58888151  .00000107  00000+0  30986-4 0  9996
2 43257  86.3966 320.8403 0002162  88.2432 271.9011 14.34218164419750
IRIDIUM 143             
1 43258U 18030K   26095.56985313  .00000253  00000+0  83143-4 0  9998
2 43258  86.3967 320.9379 0002291  89.1681 270.9778 14.34217197419680
IRIDIUM 161             
1 43478U 18047C   26095.51027244  .00000200  00000+0  53322-4 0  9993
2 43478  86.4453 118.8695 0002144  85.0606 275.0840 14.43278328414650
